{"type": "FeatureCollection", "features": [ {"type": "Feature", "properties": {"norad_id": 32289, "name": "YAOGAN-3", "group": "resource", "lat": -65.80593721075725, "lon": 41.856112655231136, "alt_km": 606.1529032231128, "timestamp": "2025-12-23T11:34:47.838610+00:00", "meta": {"OBJECT_NAME": "YAOGAN-3", "OBJECT_ID": "2007-055A", "EPOCH": "2025-12-22T22:59:08.793888", "MEAN_MOTION": 14.89902608, "ECCENTRICITY": 0.00011433, "INCLINATION": 97.8348, "RA_OF_ASC_NODE": 23.4895, "ARG_OF_PERICENTER": 83.1705, "MEAN_ANOMALY": 276.9643, "EPHEMERIS_TYPE": 0, "CLASSIFICATION_TYPE": "U", "NORAD_CAT_ID": 32289, "ELEMENT_SET_NO": 999, "REV_AT_EPOCH": 97961, "BSTAR": 0.000269944, "MEAN_MOTION_DOT": 2.541e-05, "MEAN_MOTION_DDOT": 0}, "tle": {"line1": "1 32289U 07055A   25356.95774067  .00002541  00000+0  26994-3 0  9991", "line2": "2 32289  97.8348  23.4895 0001143  83.1705 276.9643 14.89902608979615"}}, "geometry": {"type": "Point", "coordinates": [41.856112655231136, -65.80593721075725]}}, {"type": "Feature", "properties": {"norad_id": 32376, "name": "COSMO-SKYMED 2", "group": "resource", "lat": -81.34500752798887, "lon": -115.8594903350427, "alt_km": 630.7854468283067, "timestamp": "2025-12-23T11:34:47.838632+00:00", "meta": {"OBJECT_NAME": "COSMO-SKYMED 2", "OBJECT_ID": "2007-059A", "EPOCH": "2025-12-22T23:00:26.825184", "MEAN_MOTION": 14.82154722, "ECCENTRICITY": 0.00013183, "INCLINATION": 97.8805, "RA_OF_ASC_NODE": 178.1286, "ARG_OF_PERICENTER": 82.8014, "MEAN_ANOMALY": 277.335, "EPHEMERIS_TYPE": 0, "CLASSIFICATION_TYPE": "U", "NORAD_CAT_ID": 32376, "ELEMENT_SET_NO": 999, "REV_AT_EPOCH": 97589, "BSTAR": 7.3893972e-05, "MEAN_MOTION_DOT": 5.36e-06, "MEAN_MOTION_DDOT": 0}, "tle": {"line1": "1 32376U 07059A   25356.95864381  .00000536  00000+0  73894-4 0  9995", "line2": "2 32376  97.8805 178.1286 0001318  82.8014 277.3350 14.82154722975890"}}, "geometry": {"type": "Point", "coordinates": [-115.8594903350427, -81.34500752798887]}}, {"type": "Feature", "properties": {"norad_id": 32382, "name": "RADARSAT-2", "group": "resource", "lat": 8.098390760259266, "lon": 0.6851562814874752, "alt_km": 793.3954997824749, "timestamp": "2025-12-23T11:34:47.838642+00:00", "meta": {"OBJECT_NAME": "RADARSAT-2", "OBJECT_ID": "2007-061A", "EPOCH": "2025-12-22T23:47:12.016320", "MEAN_MOTION": 14.29984335, "ECCENTRICITY": 0.00011135, "INCLINATION": 98.5791, "RA_OF_ASC_NODE": 1.4318, "ARG_OF_PERICENTER": 84.8723, "MEAN_ANOMALY": 275.2586, "EPHEMERIS_TYPE": 0, "CLASSIFICATION_TYPE": "U", "NORAD_CAT_ID": 32382, "ELEMENT_SET_NO": 999, "REV_AT_EPOCH": 94077, "BSTAR": 2.2531011e-05, "MEAN_MOTION_DOT": 1.4e-07, "MEAN_MOTION_DDOT": 0}, "tle": {"line1": "1 32382U 07061A   25356.99111130  .00000014  00000+0  22531-4 0  9999", "line2": "2 32382  98.5791   1.4318 0001113  84.8723 275.2586 14.29984335940774"}}, "geometry": {"type": "Point", "coordinates": [0.6851562814874752, 8.098390760259266]}}, {"type": "Feature", "properties": {"norad_id": 32783, "name": "CARTOSAT-2A", "group": "resource", "lat": -69.31807603377942, "lon": 68.23596945190496, "alt_km": 633.9477516258148, "timestamp": "2025-12-23T11:34:47.838652+00:00", "meta": {"OBJECT_NAME": "CARTOSAT-2A", "OBJECT_ID": "2008-021A", "EPOCH": "2025-12-23T03:46:48.316224", "MEAN_MOTION": 14.78947939, "ECCENTRICITY": 0.0011114, "INCLINATION": 97.7914, "RA_OF_ASC_NODE": 46.6551, "ARG_OF_PERICENTER": 330.2244, "MEAN_ANOMALY": 29.8334, "EPHEMERIS_TYPE": 0, "CLASSIFICATION_TYPE": "U", "NORAD_CAT_ID": 32783, "ELEMENT_SET_NO": 999, "REV_AT_EPOCH": 95278, "BSTAR": -8.9827e-05, "MEAN_MOTION_DOT": -7.14e-06, "MEAN_MOTION_DDOT": 0}, "tle": {"line1": "1 32783U 08021A   25357.15750366 -.00000714  00000+0 -89827-4 0  9990", "line2": "2 32783  97.7914  46.6551 0011114 330.2244  29.8334 14.78947939952786"}}, "geometry": {"type": "Point", "coordinates": [68.23596945190496, -69.31807603377942]}}, {"type": "Feature", "properties": {"norad_id": 33320, "name": "HUANJING 1A (HJ-1A)", "group": "resource", "lat": -32.83509652424473, "lon": -9.6887488641767, "alt_km": 613.3750860715654, "timestamp": "2025-12-23T11:34:47.838662+00:00", "meta": {"OBJECT_NAME": "HUANJING 1A (HJ-1A)", "OBJECT_ID": "2008-041A", "EPOCH": "2025-12-23T05:15:11.380608", "MEAN_MOTION": 14.83426663, "ECCENTRICITY": 0.0019377, "INCLINATION": 97.6543, "RA_OF_ASC_NODE": 345.0799, "ARG_OF_PERICENTER": 1.2882, "MEAN_ANOMALY": 358.8379, "EPHEMERIS_TYPE": 0, "CLASSIFICATION_TYPE": "U", "NORAD_CAT_ID": 33320, "ELEMENT_SET_NO": 999, "REV_AT_EPOCH": 93231, "BSTAR": 0.00022497, "MEAN_MOTION_DOT": 1.802e-05, "MEAN_MOTION_DDOT": 0}, "tle": {"line1": "1 33320U 08041A   25357.21888172  .00001802  00000+0  22497-3 0  9990", "line2": "2 33320  97.6543 345.0799 0019377   1.2882 358.8379 14.83426663932316"}}, "geometry": {"type": "Point", "coordinates": [-9.6887488641767, -32.83509652424473]}}, {"type": "Feature", "properties": {"norad_id": 33321, "name": "HUANJING 1B (HJ-1B)", "group": "resource", "lat": 13.50593178903679, "lon": 170.84886941257486, "alt_km": 636.4516759808012, "timestamp": "2025-12-23T11:34:47.838672+00:00", "meta": {"OBJECT_NAME": "HUANJING 1B (HJ-1B)", "OBJECT_ID": "2008-041B", "EPOCH": "2025-12-23T04:21:26.953344", "MEAN_MOTION": 14.8284551, "ECCENTRICITY": 0.0037869, "INCLINATION": 97.64, "RA_OF_ASC_NODE": 348.7137, "ARG_OF_PERICENTER": 42.648, "MEAN_ANOMALY": 317.7663, "EPHEMERIS_TYPE": 0, "CLASSIFICATION_TYPE": "U", "NORAD_CAT_ID": 33321, "ELEMENT_SET_NO": 999, "REV_AT_EPOCH": 93232, "BSTAR": 0.00011478, "MEAN_MOTION_DOT": 8.89e-06, "MEAN_MOTION_DDOT": 0}, "tle": {"line1": "1 33321U 08041B   25357.18156196  .00000889  00000+0  11478-3 0  9992", "line2": "2 33321  97.6400 348.7137 0037869  42.6480 317.7663 14.82845510932320"}}, "geometry": {"type": "Point", "coordinates": [170.84886941257486, 13.50593178903679]}}, {"type": "Feature", "properties": {"norad_id": 33331, "name": "GEOEYE 1", "group": "resource", "lat": 6.478179692929398, "lon": -110.44335035466543, "alt_km": 679.2361930535344, "timestamp": "2025-12-23T11:34:47.838700+00:00", "meta": {"OBJECT_NAME": "GEOEYE 1", "OBJECT_ID": "2008-042A", "EPOCH": "2025-12-23T04:13:57.784800", "MEAN_MOTION": 14.64713746, "ECCENTRICITY": 0.0002913, "INCLINATION": 98.1239, "RA_OF_ASC_NODE": 68.3251, "ARG_OF_PERICENTER": 239.3644, "MEAN_ANOMALY": 120.7272, "EPHEMERIS_TYPE": 0, "CLASSIFICATION_TYPE": "U", "NORAD_CAT_ID": 33331, "ELEMENT_SET_NO": 999, "REV_AT_EPOCH": 92438, "BSTAR": 0.00011627, "MEAN_MOTION_DOT": 5.71e-06, "MEAN_MOTION_DDOT": 0}, "tle": {"line1": "1 33331U 08042A   25357.17636325  .00000571  00000+0  11627-3 0  9994", "line2": "2 33331  98.1239  68.3251 0002913 239.3644 120.7272 14.64713746924388"}}, "geometry": {"type": "Point", "coordinates": [-110.44335035466543, 6.478179692929398]}}, {"type": "Feature", "properties": {"norad_id": 33396, "name": "THEOS", "group": "resource", "lat": 71.19629159642142, "lon": -98.40738913159682, "alt_km": 817.2794350844242, "timestamp": "2025-12-23T11:34:47.838716+00:00", "meta": {"OBJECT_NAME": "THEOS", "OBJECT_ID": "2008-049A", "EPOCH": "2025-12-23T04:18:54.709632", "MEAN_MOTION": 14.20097559, "ECCENTRICITY": 0.0001209, "INCLINATION": 98.5852, "RA_OF_ASC_NODE": 54.961, "ARG_OF_PERICENTER": 93.6262, "MEAN_ANOMALY": 266.5054, "EPHEMERIS_TYPE": 0, "CLASSIFICATION_TYPE": "U", "NORAD_CAT_ID": 33396, "ELEMENT_SET_NO": 999, "REV_AT_EPOCH": 89298, "BSTAR": -8.6197e-05, "MEAN_MOTION_DOT": -2.26e-06, "MEAN_MOTION_DDOT": 0}, "tle": {"line1": "1 33396U 08049A   25357.17979988 -.00000226  00000+0 -86197-4 0  9991", "line2": "2 33396  98.5852  54.9610 0001209  93.6262 266.5054 14.20097559892984"}}, "geometry": {"type": "Point", "coordinates": [-98.40738913159682, 71.19629159642142]}}, {"type": "Feature", "properties": {"norad_id": 33412, "name": "COSMO-SKYMED 3", "group": "resource", "lat": -66.93394113337416, "lon": 9.162680096117352, "alt_km": 561.7514143183662, "timestamp": "2025-12-23T11:34:47.838726+00:00", "meta": {"OBJECT_NAME": "COSMO-SKYMED 3", "OBJECT_ID": "2008-054A", "EPOCH": "2025-12-23T04:06:04.615200", "MEAN_MOTION": 15.05443179, "ECCENTRICITY": 0.0017055, "INCLINATION": 97.8455, "RA_OF_ASC_NODE": 207.739, "ARG_OF_PERICENTER": 137.5205, "MEAN_ANOMALY": 222.7344, "EPHEMERIS_TYPE": 0, "CLASSIFICATION_TYPE": "U", "NORAD_CAT_ID": 33412, "ELEMENT_SET_NO": 999, "REV_AT_EPOCH": 93044, "BSTAR": 0.00032739, "MEAN_MOTION_DOT": 4.651e-05, "MEAN_MOTION_DDOT": 0}, "tle": {"line1": "1 33412U 08054A   25357.17088675  .00004651  00000+0  32739-3 0  9996", "line2": "2 33412  97.8455 207.7390 0017055 137.5205 222.7344 15.05443179930445"}}, "geometry": {"type": "Point", "coordinates": [9.162680096117352, -66.93394113337416]}}, {"type": "Feature", "properties": {"norad_id": 33446, "name": "YAOGAN-4", "group": "resource", "lat": 70.87423170594214, "lon": -96.189636852193, "alt_km": 621.5871193014927, "timestamp": "2025-12-23T11:34:47.838735+00:00", "meta": {"OBJECT_NAME": "YAOGAN-4", "OBJECT_ID": "2008-061A", "EPOCH": "2025-12-23T01:32:09.118752", "MEAN_MOTION": 14.8271129, "ECCENTRICITY": 0.0013034, "INCLINATION": 97.9196, "RA_OF_ASC_NODE": 287.0625, "ARG_OF_PERICENTER": 286.8036, "MEAN_ANOMALY": 73.1747, "EPHEMERIS_TYPE": 0, "CLASSIFICATION_TYPE": "U", "NORAD_CAT_ID": 33446, "ELEMENT_SET_NO": 999, "REV_AT_EPOCH": 91956, "BSTAR": 0.00017044, "MEAN_MOTION_DOT": 1.323e-05, "MEAN_MOTION_DDOT": 0}, "tle": {"line1": "1 33446U 08061A   25357.06399443  .00001323  00000+0  17044-3 0  9992", "line2": "2 33446  97.9196 287.0625 0013034 286.8036  73.1747 14.82711290919561"}}, "geometry": {"type": "Point", "coordinates": [-96.189636852193, 70.87423170594214]}}]}